STARLINK-2188           
1 48563U 21041L   26068.53595363 -.00000578  00000+0 -73855-5 0  9999
2 48563  53.1608 127.4161 0001646  91.3833 268.7357 15.30194145265258
TEVEL2-1                
1 63217U 25052H   26068.64782323  .00020683  00000+0  70600-3 0  9994
2 63217  97.3991 324.7682 0004767 104.8919 255.2849 15.30341923 54855
